[{"OBJECT_NAME":"SKYBEE-A01","OBJECT_ID":"2025-009BQ","EPOCH":"2026-03-09T22:13:34.187232","MEAN_MOTION":15.20469769,"ECCENTRICITY":0.00044249,"INCLINATION":97.4035,"RA_OF_ASC_NODE":149.2825,"ARG_OF_PERICENTER":337.6504,"MEAN_ANOMALY":22.4538,"EPHEMERIS_TYPE":0,"CLASSIFICATION_TYPE":"U","NORAD_CAT_ID":62671,"ELEMENT_SET_NO":999,"REV_AT_EPOCH":12125,"BSTAR":0.00016670502,"MEAN_MOTION_DOT":3.572e-5,"MEAN_MOTION_DDOT":0},{"OBJECT_NAME":"TIANYI E","OBJECT_ID":"2025-103E","EPOCH":"2026-03-09T23:53:00.366432","MEAN_MOTION":15.21814724,"ECCENTRICITY":0.00039842,"INCLINATION":97.3824,"RA_OF_ASC_NODE":143.2002,"ARG_OF_PERICENTER":141.8927,"MEAN_ANOMALY":218.2592,"EPHEMERIS_TYPE":0,"CLASSIFICATION_TYPE":"U","NORAD_CAT_ID":64052,"ELEMENT_SET_NO":999,"REV_AT_EPOCH":4501,"BSTAR":0.00058098281,"MEAN_MOTION_DOT":0.0001314,"MEAN_MOTION_DDOT":0}]
